     3.02           N: GNSS NAV DATA    M: Mixed            RINEX VERSION / TYPE
RTKCONV 2.4.3 b33   Joao Manito         20210122 131345 UTC PGM / RUN BY / DATE 
log: D:\Personal\Google Drive (joao.manito@tecnico.ulisboa  COMMENT             
format: u-blox                                              COMMENT             
GPSA   1.2107E-08 -7.4506E-09 -1.1921E-07  5.9605E-08       IONOSPHERIC CORR    
GPSB   9.6256E+04 -3.2768E+04 -1.9661E+05  1.9661E+05       IONOSPHERIC CORR    
GPUT  4.6566128731E-09 1.154631946E-14 503808 2129          TIME SYSTEM CORR    
    18                                                      LEAP SECONDS        
                                                            END OF HEADER       
S36 2020 10 27  5 57 20  .000000000000E+00  .000000000000E+00  .194249000000E+06
      .420036880000E+05  .000000000000E+00  .000000000000E+00  .100000000000E+01
      .367484696000E+04  .000000000000E+00  .000000000000E+00  .819200000000E+04
      .000000000000E+00  .000000000000E+00  .000000000000E+00  .000000000000E+00
S23 2020 10 27  5 57 20  .000000000000E+00  .000000000000E+00  .194249000000E+06
      .359446000000E+05  .000000000000E+00  .000000000000E+00  .100000000000E+01
      .220441400000E+05  .000000000000E+00  .000000000000E+00  .819200000000E+04
      .000000000000E+00  .000000000000E+00  .000000000000E+00  .000000000000E+00
S36 2020 10 27  5 59 28  .000000000000E+00  .000000000000E+00  .194377000000E+06
      .420036880000E+05  .000000000000E+00  .000000000000E+00  .100000000000E+01
      .367484696000E+04  .000000000000E+00  .000000000000E+00  .819200000000E+04
      .000000000000E+00  .000000000000E+00  .000000000000E+00  .000000000000E+00
S23 2020 10 27  5 59 28  .000000000000E+00  .000000000000E+00  .194377000000E+06
      .359446000000E+05  .000000000000E+00  .000000000000E+00  .100000000000E+01
      .220441400000E+05  .000000000000E+00  .000000000000E+00  .819200000000E+04
      .000000000000E+00  .000000000000E+00  .000000000000E+00  .000000000000E+00
G11 2020 10 27  8  0  0 -.125536695123E-03  .105728759081E-10  .000000000000E+00
      .270000000000E+02  .323750000000E+02  .567166481903E-08  .274513008054E+00
      .169128179550E-05  .157216873486E-01  .901520252228E-05  .515372555923E+04
      .201600000000E+06 -.115483999252E-06 -.164713883257E+00 -.158324837685E-06
      .913985729414E+00  .183593750000E+03  .206145066952E+01 -.885751180806E-08
      .198222542479E-09  .100000000000E+01  .212900000000E+04  .000000000000E+00
      .200000000000E+01  .000000000000E+00 -.125728547573E-07  .270000000000E+02
      .194406000000E+06  .400000000000E+01
G 8 2020 10 27  8  0  0 -.529098324478E-04 -.136424205266E-11  .000000000000E+00
      .160000000000E+02 -.144375000000E+02  .419910348094E-08  .313002362385E+01
     -.618398189545E-06  .562872027513E-02  .101123005152E-04  .515374505043E+04
      .201600000000E+06 -.875443220139E-07 -.751637573408E+00 -.186264514923E-08
      .968958924137E+00  .189593750000E+03 -.689589095354E-01 -.774496546604E-08
     -.125362364703E-09  .100000000000E+01  .212900000000E+04  .000000000000E+00
      .200000000000E+01  .000000000000E+00  .512227416039E-08  .160000000000E+02
      .194406000000E+06  .400000000000E+01
G21 2020 10 27  8  0  0  .620298087597E-04  .386535248253E-11  .000000000000E+00
      .350000000000E+02  .630312500000E+02  .458840541122E-08 -.273705043373E+01
      .335462391376E-05  .238482831046E-01  .648573040962E-05  .515500667953E+04
      .201600000000E+06  .143423676491E-06  .241528380535E+00  .352039933205E-06
      .955149265664E+00  .243656250000E+03 -.127228497859E+01 -.778603860547E-08
      .421446126351E-09  .100000000000E+01  .212900000000E+04  .000000000000E+00
      .200000000000E+01  .000000000000E+00 -.102445483208E-07  .350000000000E+02
      .194406000000E+06  .400000000000E+01
G 1 2020 10 27  8  0  0  .812807586044E-03 -.284217094304E-11  .000000000000E+00
      .360000000000E+02  .498125000000E+02  .424196240905E-08  .824961412097E+00
      .275671482086E-05  .100961921271E-01  .679492950439E-05  .515369801140E+04
      .201600000000E+06 -.353902578354E-07  .319504629336E+00  .132247805595E-06
      .982184089784E+00  .259031250000E+03  .828640535496E+00 -.813105297671E-08
      .201794119821E-09  .100000000000E+01  .212900000000E+04  .000000000000E+00
      .200000000000E+01  .000000000000E+00  .512227416039E-08  .360000000000E+02
      .194406000000E+06  .400000000000E+01
G27 2020 10 27  8  0  0 -.427722930908E-03 -.852651282912E-11  .000000000000E+00
      .119000000000E+03 -.160000000000E+02  .399123767964E-08  .300930004419E+01
     -.812113285065E-06  .845895672683E-02  .107176601887E-04  .515367609787E+04
      .201600000000E+06 -.838190317154E-07 -.736121703338E+00 -.113621354103E-06
      .977459453944E+00  .182312500000E+03  .569838104593E+00 -.760067374143E-08
     -.126790995640E-09  .100000000000E+01  .212900000000E+04  .000000000000E+00
      .200000000000E+01  .000000000000E+00  .186264514923E-08  .119000000000E+03
      .194406000000E+06  .400000000000E+01
G22 2020 10 27  8  0  0 -.738129951060E-03  .488853402203E-11  .000000000000E+00
      .360000000000E+02 -.387187500000E+02  .545987028266E-08  .200639417039E+01
     -.208429992199E-05  .670936063398E-02  .340119004250E-05  .515369686699E+04
      .201600000000E+06  .100582838058E-06  .126694961687E+01 -.745058059692E-08
      .931972883589E+00  .294531250000E+03 -.108082990228E+01 -.858500045687E-08
     -.236795577772E-09  .100000000000E+01  .212900000000E+04  .000000000000E+00
      .200000000000E+01  .000000000000E+00 -.181607902050E-07  .360000000000E+02
      .194406000000E+06  .400000000000E+01
G10 2020 10 27  8  0  0 -.489868223667E-03 -.932232069317E-11  .000000000000E+00
      .340000000000E+02 -.515937500000E+02  .462483550011E-08 -.116361784810E+01
     -.277161598206E-05  .606339413207E-02  .432133674622E-05  .515366415596E+04
      .201600000000E+06  .216066837311E-06  .135593565548E+01 -.108033418655E-06
      .966629671823E+00  .301531250000E+03 -.266244871269E+01 -.820498462769E-08
     -.284297556420E-09  .100000000000E+01  .212900000000E+04  .000000000000E+00
      .200000000000E+01  .000000000000E+00  .232830643654E-08  .340000000000E+02
      .194406000000E+06  .400000000000E+01
G16 2020 10 27  8  0  0 -.228050164878E-03 -.522959453519E-11  .000000000000E+00
      .410000000000E+02 -.327187500000E+02  .446340020425E-08 -.238497110115E+01
     -.198930501938E-05  .116569091333E-01  .516511499882E-05  .515358923340E+04
      .201600000000E+06  .856816768646E-07 -.169321323998E+01 -.201165676117E-06
      .976186836637E+00  .288375000000E+03  .628192416061E+00 -.801140513575E-08
     -.121790787361E-09  .100000000000E+01  .212900000000E+04  .000000000000E+00
      .200000000000E+01  .000000000000E+00 -.107102096081E-07  .410000000000E+02
      .194406000000E+06  .400000000000E+01
G 3 2020 10 27  8  0  0 -.337333884090E-03 -.102318153949E-10  .000000000000E+00
      .980000000000E+02 -.483125000000E+02  .469840999335E-08 -.365319206406E+00
     -.257603824139E-05  .325969827827E-02  .445544719696E-05  .515371989250E+04
      .201600000000E+06 -.204890966415E-07  .135891151905E+01  .316649675369E-07
      .966708707435E+00  .294843750000E+03  .898863220461E+00 -.831177479021E-08
     -.253581991279E-09  .100000000000E+01  .212900000000E+04  .000000000000E+00
      .200000000000E+01  .000000000000E+00  .186264514923E-08  .980000000000E+02
      .194406000000E+06  .400000000000E+01
G 7 2020 10 27  8  0  0 -.401923898607E-03 -.784439180279E-11  .000000000000E+00
      .510000000000E+02  .640000000000E+02  .484877339945E-08  .148119675790E+00
      .347755849361E-05  .142249767669E-01  .725872814655E-05  .515363285255E+04
      .201600000000E+06  .186264514923E-08 -.282049382683E+01  .301748514175E-06
      .952851641638E+00  .237906250000E+03 -.236156029231E+01 -.843285126210E-08
      .380372986919E-09  .100000000000E+01  .212900000000E+04  .000000000000E+00
      .200000000000E+01  .000000000000E+00 -.111758708954E-07  .510000000000E+02
      .194406000000E+06  .400000000000E+01
G30 2020 10 27  8  0  0 -.324856024235E-03 -.682121026330E-11  .000000000000E+00
      .340000000000E+02  .661562500000E+02  .513985695282E-08  .142883447258E+00
      .352226197720E-05  .476199260447E-02  .693090260029E-05  .515357436943E+04
      .201600000000E+06  .100582838058E-06 -.280014198847E+01  .447034835815E-07
      .938109503089E+00  .233718750000E+03 -.281437820167E+01 -.848856786864E-08
      .414302971667E-09  .100000000000E+01  .212900000000E+04  .000000000000E+00
      .200000000000E+01  .000000000000E+00  .372529029846E-08  .340000000000E+02
      .194406000000E+06  .400000000000E+01
G23 2020 10 27  8  0  0  .920961610973E-04  .568434188608E-11  .000000000000E+00
      .900000000000E+02 -.533437500000E+02  .480662878681E-08  .874459988471E+00
     -.298768281937E-05  .108825613279E-02  .412762165070E-05  .515362134933E+04
      .201600000000E+06  .800937414169E-07  .133357737230E+01  .167638063431E-07
      .961566428964E+00  .303750000000E+03  .204695692861E+01 -.836356266167E-08
     -.321799118511E-09  .100000000000E+01  .212900000000E+04  .000000000000E+00
      .200000000000E+01  .000000000000E+00 -.838190317154E-08  .346000000000E+03
      .194406000000E+06  .400000000000E+01
S36 2020 10 27  6  1 36  .000000000000E+00  .000000000000E+00  .194505000000E+06
      .420036880000E+05  .000000000000E+00  .000000000000E+00  .100000000000E+01
      .367484696000E+04  .000000000000E+00  .000000000000E+00  .819200000000E+04
      .000000000000E+00  .000000000000E+00  .000000000000E+00  .000000000000E+00
S23 2020 10 27  6  1 36  .000000000000E+00  .000000000000E+00  .194505000000E+06
      .359446000000E+05  .000000000000E+00  .000000000000E+00  .100000000000E+01
      .220441400000E+05  .000000000000E+00  .000000000000E+00  .819200000000E+04
      .000000000000E+00  .000000000000E+00  .000000000000E+00  .000000000000E+00
